{
  "type": "FeatureCollection",
  "features": [
    {
      "type": "Feature",
      "properties": {
        "norad_id": 66626,
        "name": "STARLINK-35902",
        "group": "last-30-days",
        "lat": 47.235930860316216,
        "lon": -123.2373761938314,
        "alt_km": 411.8104197634111,
        "timestamp": "2025-12-13T16:48:31.465889+00:00",
        "meta_object_name": "STARLINK-35902",
        "meta_object_id": "2025-271K",
        "meta_epoch": "2025-12-12T20:00:01.999872",
        "meta_mean_motion": 15.49226326,
        "meta_eccentricity": 7.523e-05,
        "meta_inclination": 53.1596,
        "meta_ra_of_asc_node": 186.7492,
        "meta_arg_of_pericenter": 75.4,
        "meta_mean_anomaly": 192.7864,
        "meta_ephemeris_type": 0,
        "meta_classification_type": "U",
        "meta_norad_cat_id": 66626,
        "meta_element_set_no": 999,
        "meta_rev_at_epoch": 425,
        "meta_bstar": 0.0012488226,
        "meta_mean_motion_dot": 0.00069422,
        "meta_mean_motion_ddot": 0,
        "tle_line1": "1 66626U 25271K   25346.83335648  .00069422  00000+0  12488-2 0  9990",
        "tle_line2": "2 66626  53.1596 186.7492 0000752  75.4000 192.7864 15.49226326  4252"
      },
      "geometry": {
        "type": "Point",
        "coordinates": [
          -123.2373761938314,
          47.235930860316216
        ]
      }
    },
    {
      "type": "Feature",
      "properties": {
        "norad_id": 66627,
        "name": "STARLINK-35904",
        "group": "last-30-days",
        "lat": 48.11408477603082,
        "lon": -120.68082351651849,
        "alt_km": 411.6661890477408,
        "timestamp": "2025-12-13T16:48:31.465901+00:00",
        "meta_object_name": "STARLINK-35904",
        "meta_object_id": "2025-271L",
        "meta_epoch": "2025-12-12T20:00:01.999872",
        "meta_mean_motion": 15.49230515,
        "meta_eccentricity": 7.696e-05,
        "meta_inclination": 53.1595,
        "meta_ra_of_asc_node": 186.7451,
        "meta_arg_of_pericenter": 80.6503,
        "meta_mean_anomaly": 189.4551,
        "meta_ephemeris_type": 0,
        "meta_classification_type": "U",
        "meta_norad_cat_id": 66627,
        "meta_element_set_no": 999,
        "meta_rev_at_epoch": 409,
        "meta_bstar": 0.001250501,
        "meta_mean_motion_dot": 0.00069528,
        "meta_mean_motion_ddot": 0,
        "tle_line1": "1 66627U 25271L   25346.83335648  .00069528  00000+0  12505-2 0  9998",
        "tle_line2": "2 66627  53.1595 186.7451 0000769  80.6503 189.4551 15.49230515  4094"
      },
      "geometry": {
        "type": "Point",
        "coordinates": [
          -120.68082351651849,
          48.11408477603082
        ]
      }
    },
    {
      "type": "Feature",
      "properties": {
        "norad_id": 66628,
        "name": "STARLINK-35862",
        "group": "last-30-days",
        "lat": 48.927359457244215,
        "lon": -118.05903898692588,
        "alt_km": 411.47078713455903,
        "timestamp": "2025-12-13T16:48:31.465911+00:00",
        "meta_object_name": "STARLINK-35862",
        "meta_object_id": "2025-271M",
        "meta_epoch": "2025-12-12T20:00:01.999872",
        "meta_mean_motion": 15.49229575,
        "meta_eccentricity": 8.688e-05,
        "meta_inclination": 53.1595,
        "meta_ra_of_asc_node": 186.7412,
        "meta_arg_of_pericenter": 73.1996,
        "meta_mean_anomaly": 198.8233,
        "meta_ephemeris_type": 0,
        "meta_classification_type": "U",
        "meta_norad_cat_id": 66628,
        "meta_element_set_no": 999,
        "meta_rev_at_epoch": 425,
        "meta_bstar": 0.0012567389,
        "meta_mean_motion_dot": 0.00069878,
        "meta_mean_motion_ddot": 0,
        "tle_line1": "1 66628U 25271M   25346.83335648  .00069878  00000+0  12567-2 0  9995",
        "tle_line2": "2 66628  53.1595 186.7412 0000868  73.1996 198.8233 15.49229575  4258"
      },
      "geometry": {
        "type": "Point",
        "coordinates": [
          -118.05903898692588,
          48.927359457244215
        ]
      }
    },
    {
      "type": "Feature",
      "properties": {
        "norad_id": 66629,
        "name": "STARLINK-35956",
        "group": "last-30-days",
        "lat": 49.675155001585104,
        "lon": -115.36847737742504,
        "alt_km": 411.3928773498237,
        "timestamp": "2025-12-13T16:48:31.465932+00:00",
        "meta_object_name": "STARLINK-35956",
        "meta_object_id": "2025-271N",
        "meta_epoch": "2025-12-12T20:00:01.999872",
        "meta_mean_motion": 15.49227898,
        "meta_eccentricity": 8.411e-05,
        "meta_inclination": 53.1595,
        "meta_ra_of_asc_node": 186.7376,
        "meta_arg_of_pericenter": 73.5806,
        "meta_mean_anomaly": 200.3564,
        "meta_ephemeris_type": 0,
        "meta_classification_type": "U",
        "meta_norad_cat_id": 66629,
        "meta_element_set_no": 999,
        "meta_rev_at_epoch": 425,
        "meta_bstar": 0.0012375013,
        "meta_mean_motion_dot": 0.00068787,
        "meta_mean_motion_ddot": 0,
        "tle_line1": "1 66629U 25271N   25346.83335648  .00068787  00000+0  12375-2 0  9991",
        "tle_line2": "2 66629  53.1595 186.7376 0000841  73.5806 200.3564 15.49227898  4255"
      },
      "geometry": {
        "type": "Point",
        "coordinates": [
          -115.36847737742504,
          49.675155001585104
        ]
      }
    },
    {
      "type": "Feature",
      "properties": {
        "norad_id": 66630,
        "name": "STARLINK-35949",
        "group": "last-30-days",
        "lat": 50.338054827180585,
        "lon": -112.68903156759056,
        "alt_km": 411.41615875252774,
        "timestamp": "2025-12-13T16:48:31.465944+00:00",
        "meta_object_name": "STARLINK-35949",
        "meta_object_id": "2025-271P",
        "meta_epoch": "2025-12-12T20:00:01.999872",
        "meta_mean_motion": 15.49297866,
        "meta_eccentricity": 0.00012569,
        "meta_inclination": 53.1598,
        "meta_ra_of_asc_node": 186.7322,
        "meta_arg_of_pericenter": 98.9024,
        "meta_mean_anomaly": 176.9415,
        "meta_ephemeris_type": 0,
        "meta_classification_type": "U",
        "meta_norad_cat_id": 66630,
        "meta_element_set_no": 999,
        "meta_rev_at_epoch": 425,
        "meta_bstar": -0.00058312883,
        "meta_mean_motion_dot": -0.00032731,
        "meta_mean_motion_ddot": 0,
        "tle_line1": "1 66630U 25271P   25346.83335648 -.00032731  00000+0 -58313-3 0  9998",
        "tle_line2": "2 66630  53.1598 186.7322 0001256  98.9024 176.9415 15.49297866  4250"
      },
      "geometry": {
        "type": "Point",
        "coordinates": [
          -112.68903156759056,
          50.338054827180585
        ]
      }
    },
    {
      "type": "Feature",
      "properties": {
        "norad_id": 66631,
        "name": "STARLINK-35965",
        "group": "last-30-days",
        "lat": 50.96024727938205,
        "lon": -109.81972337188523,
        "alt_km": 411.4027040056153,
        "timestamp": "2025-12-13T16:48:31.465954+00:00",
        "meta_object_name": "STARLINK-35965",
        "meta_object_id": "2025-271Q",
        "meta_epoch": "2025-12-12T20:00:01.999872",
        "meta_mean_motion": 15.49205043,
        "meta_eccentricity": 6.575e-05,
        "meta_inclination": 53.1596,
        "meta_ra_of_asc_node": 186.7293,
        "meta_arg_of_pericenter": 67.3448,
        "meta_mean_anomaly": 210.4258,
        "meta_ephemeris_type": 0,
        "meta_classification_type": "U",
        "meta_norad_cat_id": 66631,
        "meta_element_set_no": 999,
        "meta_rev_at_epoch": 425,
        "meta_bstar": 0.0012594724,
        "meta_mean_motion_dot": 0.00069971,
        "meta_mean_motion_ddot": 0,
        "tle_line1": "1 66631U 25271Q   25346.83335648  .00069971  00000+0  12595-2 0  9994",
        "tle_line2": "2 66631  53.1596 186.7293 0000657  67.3448 210.4258 15.49205043  4255"
      },
      "geometry": {
        "type": "Point",
        "coordinates": [
          -109.81972337188523,
          50.96024727938205
        ]
      }
    },
    {
      "type": "Feature",
      "properties": {
        "norad_id": 66632,
        "name": "STARLINK-35973",
        "group": "last-30-days",
        "lat": 51.50270546372682,
        "lon": -106.92218333612276,
        "alt_km": 411.2298138766819,
        "timestamp": "2025-12-13T16:48:31.465967+00:00",
        "meta_object_name": "STARLINK-35973",
        "meta_object_id": "2025-271R",
        "meta_epoch": "2025-12-12T20:00:01.999872",
        "meta_mean_motion": 15.4919898,
        "meta_eccentricity": 8.366e-05,
        "meta_inclination": 53.1595,
        "meta_ra_of_asc_node": 186.7251,
        "meta_arg_of_pericenter": 76.5026,
        "meta_mean_anomaly": 203.1855,
        "meta_ephemeris_type": 0,
        "meta_classification_type": "U",
        "meta_norad_cat_id": 66632,
        "meta_element_set_no": 999,
        "meta_rev_at_epoch": 420,
        "meta_bstar": 0.0012297529,
        "meta_mean_motion_dot": 0.0006828,
        "meta_mean_motion_ddot": 0,
        "tle_line1": "1 66632U 25271R   25346.83335648  .00068280  00000+0  12298-2 0  9997",
        "tle_line2": "2 66632  53.1595 186.7251 0000836  76.5026 203.1855 15.49198980  4200"
      },
      "geometry": {
        "type": "Point",
        "coordinates": [
          -106.92218333612276,
          51.50270546372682
        ]
      }
    }
  ]
}